{
  "norad_id": 66969,
  "name": "STARLINK-36149",
  "history": [
    {
      "epoch": "2026-03-28T20:23:22.604352Z",
      "apogee_km": 484.2607227268136,
      "perigee_km": 481.6768302913797,
      "latitude_deg": -3.9560746351991366e-05,
      "longitude_deg": 143.4885654838288,
      "height_km": 482.9071887732853,
      "semi_major_axis_km": 6861.105776509096,
      "eccentricity": 0.0001883,
      "inclination_deg": 43.002,
      "raan_deg": 275.5969,
      "arg_perigee_deg": 262.8352,
      "mean_anomaly_deg": 97.2285,
      "mean_motion_rev_day": 15.27606824
    }
  ]
}