{"fetched_at":"2026-03-29T16:36:15Z","count":15609,"tles":[{"name":"STARLINK-36149","line1":"1 66969U 25288L   26087.84956718  .00024323  00000+0  88977-3 0  9997","line2":"2 66969  43.0020 275.5969 0001883 262.8352  97.2285 15.27606824 18214","category":"Starlink"}]}